ONEWEB-0156             
1 48052U 21025L   23329.49536295  .00000325  00000+0  85513-3 0  9995
2 48052  87.8982 146.2226 0001570  89.7844 270.3465 13.13469874130871
ONEWEB-0161             
1 48053U 21025M   23329.54404785 -.00001115  00000+0 -30893-2 0  9990
2 48053  87.9011 146.2227 0002326 101.6956 258.4434 13.13451463130817
ONEWEB-0158             
1 48054U 21025N   23329.50799849  .00007534  00000+0  20567-1 0  9990
2 48054  87.8990 146.2137 0001735  85.0371 275.0956 13.13514132130932
ONEWEB-0157             
1 48055U 21025P   23328.99808424 -.00000139  00000+0 -41599-3 0  9999
2 48055  87.8981 146.3375 0001731  92.9297 267.2030 13.13472138130809
ONEWEB-0162             
1 48056U 21025Q   23329.56943547 -.00000077  00000+0 -24550-3 0  9999
2 48056  87.8978 146.2225 0001562  91.2259 268.9049 13.13466286130851
ONEWEB-0155             
1 48057U 21025R   23329.51441215 -.00000093  00000+0 -28990-3 0  9990
2 48057  87.8983 146.2401 0001497  91.0541 269.0760 13.13470555130983
ONEWEB-0149             
1 48058U 21025S   23329.53554944  .00001257  00000+0  34070-2 0  9993
2 48058  87.8985 146.2313 0002384  80.2096 279.9303 13.13474235130790
ONEWEB-0148             
1 48059U 21025T   23329.57582297 -.00005185  00000+0 -14251-1 0  9994
2 48059  87.8963 146.2304 0001691  53.3001 306.8284 13.13425992130923
